ONEWEB-0697             
1 61603U 24188K   25173.48540432 -.00000311  00000+0 -91467-3 0  9993
2 61603  87.8820  92.7907 0002823  78.1986 281.9459 13.11414816 37300
ONEWEB-0698             
1 61604U 24188L   25173.53967579  .00000470  00000+0  12908-2 0  9991
2 61604  87.8832  92.7887 0002869  93.6608 266.4848 13.11415070 35372
ONEWEB-0699             
1 61605U 24188M   25173.26628196 -.00001171  00000+0 -33909-2 0  9996
2 61605  87.8816 108.0261 0002591  80.1754 279.9666 13.10374693 36177
ONEWEB-0700             
1 61606U 24188N   25173.26794490  .00000858  00000+0  24203-2 0  9994
2 61606  87.8753 107.9421 0002626  67.7818 292.3587 13.10372792 36163
ONEWEB-0701             
1 61607U 24188P   25173.20817259  .00000199  00000+0  53291-3 0  9996
2 61607  87.8822 108.0466 0002901  80.4410 279.7045 13.10369752 36168
ONEWEB-0702             
1 61608U 24188Q   25173.20396634 -.00000126  00000+0 -39173-3 0  9991
2 61608  87.8767  92.8357 0002895  71.9173 288.2270 13.11418241 37300
ONEWEB-0704             
1 61609U 24188R   25173.57835363  .00000630  00000+0  17674-2 0  9998
2 61609  87.8852 107.9032 0002982  70.5355 289.6094 13.10372450 36193
ONEWEB-0705             
1 61610U 24188S   25173.04882733  .00000578  00000+0  16184-2 0  9991
2 61610  87.8809 108.0649 0002499  49.7946 310.3400 13.10372080 28294
